NORAD_CAT_ID,OBJECT_NAME,OBJECT_TYPE,EPOCH,MEAN_MOTION,ECCENTRICITY,INCLINATION,RA_OF_ASC_NODE,ARG_OF_PERICENTER,MEAN_ANOMALY,BSTAR,MEAN_MOTION_DOT,MEAN_MOTION_DDOT,TLE_LINE0,TLE_LINE1,TLE_LINE2,SEMIMAJOR_AXIS,PERIOD,APOGEE,PERIGEE,DECAYED
56498.0,STARLINK-5522,PAYLOAD,2024-05-09 00:28:08,14.98344604,0.0002989,69.9993,352.8837,265.4335,94.6482,-0.00012332,-1.565e-05,0.0,0 STARLINK-5522,1 56498U 23064BC  24130.01953907 -.00001565  00000-0 -12332-3 0  9994,2 56498  69.9993 352.8837 0002989 265.4335  94.6482 14.98344604 56288,6950.148,96.106,574.09,569.935,0.0
56498.0,STARLINK-5522,PAYLOAD,2024-05-09 08:28:48,14.98330171,0.0003024,69.9993,352.0413,280.1092,79.9726,9.3218e-05,1.019e-05,0.0,0 STARLINK-5522,1 56498U 23064BC  24130.35334367  .00001019  00000-0  93218-4 0  9999,2 56498  69.9993 352.0413 0003024 280.1092  79.9726 14.98330171 56332,6950.192,96.107,574.159,569.956,0.0
56498.0,STARLINK-5522,PAYLOAD,2024-05-09 14:53:21,14.98326041,0.0003043,69.9992,351.3686,270.1351,89.9459,0.00011062,1.227e-05,0.0,0 STARLINK-5522,1 56498U 23064BC  24130.62038478  .00001227  00000-0  11062-3 0  9990,2 56498  69.9992 351.3686 0003043 270.1351  89.9459 14.98326041 56013,6950.205,96.107,574.185,569.955,0.0
56498.0,STARLINK-5522,PAYLOAD,2024-05-09 21:17:53,14.98328496,0.0003052,69.9992,350.695,269.5494,90.5315,8.4279e-05,9.13e-06,0.0,0 STARLINK-5522,1 56498U 23064BC  24130.88742459  .00000913  00000-0  84279-4 0  9991,2 56498  69.9992 350.6950 0003052 269.5494  90.5315 14.98328496 56058,6950.198,96.107,574.184,569.941,0.0
56498.0,STARLINK-5522,PAYLOAD,2024-05-10 14:55:22,14.9833173,0.0002986,69.9993,348.8435,269.8593,90.2224,1.1131e-05,4e-07,0.0,0 STARLINK-5522,1 56498U 23064BC  24131.62178413  .00000040  00000-0  11131-4 0  9995,2 56498  69.9993 348.8435 0002986 269.8593  90.2224 14.98331730 56167,6950.188,96.107,574.128,569.977,0.0
56498.0,STARLINK-5522,PAYLOAD,2024-05-10 21:19:54,14.9833718,0.0002895,69.9992,348.1699,267.7664,92.3164,-2.2081e-05,-3.57e-06,0.0,0 STARLINK-5522,1 56498U 23064BC  24131.88882096 -.00000357  00000-0 -22081-4 0  9991,2 56498  69.9992 348.1699 0002895 267.7664  92.3164 14.98337180 56202,6950.171,96.107,574.048,570.024,0.0
56498.0,STARLINK-5522,PAYLOAD,2024-05-11 00:32:09,14.98341999,0.0002909,69.9994,347.8343,272.8511,87.2315,9.8214e-05,1.079e-05,0.0,0 STARLINK-5522,1 56498U 23064BC  24132.02233635  .00001079  00000-0  98214-4 0  9998,2 56498  69.9994 347.8343 0002909 272.8511  87.2315 14.98341999 56585,6950.156,96.106,574.043,569.999,0.0
56498.0,STARLINK-5522,PAYLOAD,2024-05-11 21:21:56,14.98299836,0.0002541,69.9997,345.6486,247.5641,112.5249,-0.00040895,-4.965e-05,0.0,0 STARLINK-5522,1 56498U 23064BC  24132.89024034 -.00004965  00000-0 -40895-3 0  9994,2 56498  69.9997 345.6486 0002541 247.5641 112.5249 14.98299836 56712,6950.286,96.109,573.917,570.385,0.0
56498.0,STARLINK-5522,PAYLOAD,2024-05-12 06:58:47,14.98288568,0.0002157,70.0004,344.6349,273.9442,86.147,-0.00071737,-8.632e-05,0.0,0 STARLINK-5522,1 56498U 23064BC  24133.29082450 -.00008632  00000-0 -71737-3 0  9999,2 56498  70.0004 344.6349 0002157 273.9442  86.1470 14.98288568 56774,6950.321,96.11,573.685,570.687,0.0
56498.0,STARLINK-5522,PAYLOAD,2024-05-12 14:59:29,14.98269267,0.0001821,70.0008,343.7961,271.9415,88.1535,-0.00059114,-7.127e-05,0.0,0 STARLINK-5522,1 56498U 23064BC  24133.62464635 -.00007127  00000-0 -59114-3 0  9998,2 56498  70.0008 343.7961 0001821 271.9415  88.1535 14.98269267 56468,6950.381,96.111,573.511,570.98,0.0
56498.0,STARLINK-5522,PAYLOAD,2024-05-12 21:23:58,14.98316948,0.0002873,69.9993,343.1214,257.1929,102.8909,-0.00010576,-1.354e-05,0.0,0 STARLINK-5522,1 56498U 23064BC  24133.89164700 -.00001354  00000-0 -10576-3 0  9992,2 56498  69.9993 343.1214 0002873 257.1929 102.8909 14.98316948 56869,6950.233,96.108,574.095,570.101,0.0
56498.0,STARLINK-5522,PAYLOAD,2024-05-13 13:25:18,14.98346631,0.0002799,69.9988,341.4355,249.4847,110.6011,-0.00030881,-3.777e-05,0.0,0 STARLINK-5522,1 56498U 23064BC  24134.55923666 -.00003777  00000-0 -30881-3 0  9992,2 56498  69.9988 341.4355 0002799 249.4847 110.6011 14.98346631 56964,6950.141,96.106,573.952,570.061,0.0
56498.0,STARLINK-5522,PAYLOAD,2024-05-13 19:49:49,14.98346451,0.0002979,69.9988,340.763,261.1832,98.899,-0.00020078,-2.489e-05,0.0,0 STARLINK-5522,1 56498U 23064BC  24134.82627300 -.00002489  00000-0 -20078-3 0  9994,2 56498  69.9988 340.7630 0002979 261.1832  98.8990 14.98346451 56645,6950.142,96.106,574.077,569.937,0.0
56498.0,STARLINK-5522,PAYLOAD,2024-05-14 07:02:46,14.98315402,0.0002866,69.9993,339.5845,271.2936,88.7894,0.00050181,5.897e-05,0.0,0 STARLINK-5522,1 56498U 23064BC  24135.29359941  .00005897  00000-0  50181-3 0  9991,2 56498  69.9993 339.5845 0002866 271.2936  88.7894 14.98315402 57078,6950.238,96.108,574.095,570.111,0.0
56498.0,STARLINK-5522,PAYLOAD,2024-05-14 19:51:51,14.98345614,0.0003635,69.9987,338.2376,273.0746,86.9998,0.00022432,2.586e-05,0.0,0 STARLINK-5522,1 56498U 23064BC  24135.82767421  .00002586  00000-0  22432-3 0  9996,2 56498  69.9987 338.2376 0003635 273.0746  86.9998 14.98345614 57152,6950.145,96.106,574.536,569.483,0.0
56498.0,STARLINK-5522,PAYLOAD,2024-05-14 21:27:58,14.98346863,0.000337,69.998,338.0694,269.8141,90.2632,0.00028659,3.33e-05,0.0,0 STARLINK-5522,1 56498U 23064BC  24135.89443120  .00003330  00000-0  28659-3 0  9995,2 56498  69.9980 338.0694 0003370 269.8141  90.2632 14.98346863 56805,6950.141,96.106,574.348,569.664,0.0
56498.0,STARLINK-5522,PAYLOAD,2024-05-15 13:29:19,14.98346613,0.000312,69.9995,336.3871,269.8154,90.2648,2.9552e-05,2.6e-06,0.0,0 STARLINK-5522,1 56498U 23064BC  24136.56203147  .00000260  00000-0  29552-4 0  9996,2 56498  69.9995 336.3871 0003120 269.8154  90.2648 14.98346613 56907,6950.142,96.106,574.175,569.838,0.0
56498.0,STARLINK-5522,PAYLOAD,2024-05-15 21:29:59,14.98347646,0.0003105,69.9992,335.5455,269.8143,90.266,4.4732e-05,4.41e-06,0.0,0 STARLINK-5522,1 56498U 23064BC  24136.89582635  .00000441  00000-0  44732-4 0  9992,2 56498  69.9992 335.5455 0003105 269.8143  90.2660 14.98347646 57311,6950.138,96.106,574.161,569.845,0.0
56498.0,STARLINK-5522,PAYLOAD,2024-05-16 11:55:11,14.98347811,0.0003057,69.9994,334.0287,271.4105,88.6704,-9.6655e-05,-1.247e-05,0.0,0 STARLINK-5522,1 56498U 23064BC  24137.49666334 -.00001247  00000-0 -96655-4 0  9996,2 56498  69.9994 334.0287 0003057 271.4105  88.6704 14.98347811 57047,6950.138,96.106,574.127,569.878,0.0
56498.0,STARLINK-5522,PAYLOAD,2024-05-16 19:55:51,14.98343398,0.0002943,69.9996,333.1877,273.5002,86.5821,-1.6319e-05,-2.88e-06,0.0,0 STARLINK-5522,1 56498U 23064BC  24137.83045959 -.00000288  00000-0 -16319-4 0  9991,2 56498  69.9996 333.1877 0002943 273.5002  86.5821 14.98343398 57094,6950.151,96.106,574.062,569.971,0.0
56498.0,STARLINK-5522,PAYLOAD,2024-05-17 21:34:01,14.98327756,0.0002949,69.9997,330.4943,276.569,83.5134,-0.0001141,-1.454e-05,0.0,0 STARLINK-5522,1 56498U 23064BC  24138.89862751 -.00001454  00000-0 -11410-3 0  9997,2 56498  69.9997 330.4943 0002949 276.5690  83.5134 14.98327756 57613,6950.2,96.107,574.114,570.015,0.0
56498.0,STARLINK-5522,PAYLOAD,2024-05-18 11:59:13,14.98326658,0.0003456,69.9985,328.9788,272.7194,87.3569,0.00014643,1.654e-05,0.0,0 STARLINK-5522,1 56498U 23064BC  24139.49945826  .00001654  00000-0  14643-3 0  9990,2 56498  69.9985 328.9788 0003456 272.7194  87.3569 14.98326658 57704,6950.203,96.107,574.47,569.666,0.0
56498.0,STARLINK-5522,PAYLOAD,2024-05-18 13:35:21,14.98335516,0.0003187,69.9977,328.8106,273.1408,86.9386,2.0058e-05,1.46e-06,0.0,0 STARLINK-5522,1 56498U 23064BC  24139.56621701  .00000146  00000-0  20058-4 0  9994,2 56498  69.9977 328.8106 0003187 273.1408  86.9386 14.98335516 57358,6950.176,96.107,574.256,569.826,0.0
56498.0,STARLINK-5522,PAYLOAD,2024-05-18 21:36:00,14.98346057,0.0003078,69.999,327.9693,274.3399,85.7408,0.00012374,1.384e-05,0.0,0 STARLINK-5522,1 56498U 23064BC  24139.90000541  .00001384  00000-0  12374-3 0  9991,2 56498  69.9990 327.9693 0003078 274.3399  85.7408 14.98346057 57764,6950.143,96.106,574.147,569.869,0.0
56498.0,STARLINK-5522,PAYLOAD,2024-05-19 13:37:22,14.9831233,0.0003127,69.9978,326.2837,269.8313,90.2488,0.0001141,1.268e-05,0.0,0 STARLINK-5522,1 56498U 23064BC  24140.56762456  .00001268  00000-0  11410-3 0  9996,2 56498  69.9978 326.2837 0003127 269.8313  90.2488 14.98312330 57500,6950.248,96.108,574.286,569.939,0.0
56498.0,STARLINK-5522,PAYLOAD,2024-05-19 20:01:55,14.98321053,0.0003384,69.9984,325.6126,268.7285,91.3486,-9.2893e-05,-1.201e-05,0.0,0 STARLINK-5522,1 56498U 23064BC  24140.83466894 -.00001201  00000-0 -92893-4 0  9997,2 56498  69.9984 325.6126 0003384 268.7285  91.3486 14.98321053 57908,6950.221,96.108,574.438,569.734,0.0
56498.0,STARLINK-5522,PAYLOAD,2024-05-20 13:39:23,14.98330873,0.000338,69.9978,323.7608,266.3268,93.7505,-2.4538e-05,-3.86e-06,0.0,0 STARLINK-5522,1 56498U 23064BC  24141.56902121 -.00000386  00000-0 -24538-4 0  9990,2 56498  69.9978 323.7608 0003380 266.3268  93.7505 14.98330873 58017,6950.19,96.107,574.404,569.706,0.0
56498.0,STARLINK-5522,PAYLOAD,2024-05-20 20:03:54,14.98341897,0.0002947,69.9996,323.0879,255.4818,104.6014,3.8587e-05,3.68e-06,0.0,0 STARLINK-5522,1 56498U 23064BC  24141.83605185  .00000368  00000-0  38587-4 0  9997,2 56498  69.9996 323.0879 0002947 255.4818 104.6014 14.98341897 58057,6950.156,96.106,574.069,569.973,0.0
56498.0,STARLINK-5522,PAYLOAD,2024-05-21 13:41:24,14.98317269,0.0003252,69.999,321.2374,264.9739,95.1049,9.5283e-05,1.044e-05,0.0,0 STARLINK-5522,1 56498U 23064BC  24142.57042666  .00001044  00000-0  95283-4 0  9996,2 56498  69.9990 321.2374 0003252 264.9739  95.1049 14.98317269 58168,6950.232,96.108,574.357,569.837,0.0
56498.0,STARLINK-5522,PAYLOAD,2024-05-21 21:42:05,14.98316912,0.0003332,69.9985,320.3954,266.6011,93.4767,5.1361e-05,5.2e-06,0.0,0 STARLINK-5522,1 56498U 23064BC  24142.90423084  .00000520  00000-0  51361-4 0  9997,2 56498  69.9985 320.3954 0003332 266.6011  93.4767 14.98316912 57854,6950.233,96.108,574.414,569.783,0.0
